{
  "type": "FeatureCollection",
  "features": [
    {
      "type": "Feature",
      "properties": {
        "norad_id": 38833,
        "name": "GPS BIIF-3  (PRN 24)",
        "group": "gps-ops",
        "lat": 45.69843633814512,
        "lon": -78.3811669419295,
        "alt_km": 19890.128222386855,
        "timestamp": "2025-12-22T11:33:20.698393+00:00",
        "meta_object_name": "GPS BIIF-3  (PRN 24)",
        "meta_object_id": "2012-053A",
        "meta_epoch": "2025-12-21T19:48:37.678176",
        "meta_mean_motion": 2.0056507,
        "meta_eccentricity": 0.0176015,
        "meta_inclination": 53.5594,
        "meta_ra_of_asc_node": 150.8666,
        "meta_arg_of_pericenter": 64.1278,
        "meta_mean_anomaly": 297.6511,
        "meta_ephemeris_type": 0,
        "meta_classification_type": "U",
        "meta_norad_cat_id": 38833,
        "meta_element_set_no": 999,
        "meta_rev_at_epoch": 9588,
        "meta_bstar": 0,
        "meta_mean_motion_dot": 6.3e-07,
        "meta_mean_motion_ddot": 0,
        "tle_line1": "1 38833U 12053A   25355.82543609  .00000063  00000+0  00000+0 0  9990",
        "tle_line2": "2 38833  53.5594 150.8666 0176015  64.1278 297.6511  2.00565070 95884"
      },
      "geometry": {
        "type": "Point",
        "coordinates": [
          -78.3811669419295,
          45.69843633814512
        ]
      }
    },
    {
      "type": "Feature",
      "properties": {
        "norad_id": 39166,
        "name": "GPS BIIF-4  (PRN 27)",
        "group": "gps-ops",
        "lat": -26.72539924130157,
        "lon": 117.0778401543994,
        "alt_km": 20539.62012225302,
        "timestamp": "2025-12-22T11:33:20.698403+00:00",
        "meta_object_name": "GPS BIIF-4  (PRN 27)",
        "meta_object_id": "2013-023A",
        "meta_epoch": "2025-12-21T04:35:02.241888",
        "meta_mean_motion": 2.00564674,
        "meta_eccentricity": 0.0138431,
        "meta_inclination": 54.6447,
        "meta_ra_of_asc_node": 276.2247,
        "meta_arg_of_pericenter": 48.7169,
        "meta_mean_anomaly": 312.5052,
        "meta_ephemeris_type": 0,
        "meta_classification_type": "U",
        "meta_norad_cat_id": 39166,
        "meta_element_set_no": 999,
        "meta_rev_at_epoch": 9231,
        "meta_bstar": 0,
        "meta_mean_motion_dot": -1.7e-07,
        "meta_mean_motion_ddot": 0,
        "tle_line1": "1 39166U 13023A   25355.19099817 -.00000017  00000+0  00000+0 0  9995",
        "tle_line2": "2 39166  54.6447 276.2247 0138431  48.7169 312.5052  2.00564674 92319"
      },
      "geometry": {
        "type": "Point",
        "coordinates": [
          117.0778401543994,
          -26.72539924130157
        ]
      }
    },
    {
      "type": "Feature",
      "properties": {
        "norad_id": 39533,
        "name": "GPS BIIF-5  (PRN 30)",
        "group": "gps-ops",
        "lat": -27.70687734811341,
        "lon": -0.6752542479924583,
        "alt_km": 19979.64219226741,
        "timestamp": "2025-12-22T11:33:20.698414+00:00",
        "meta_object_name": "GPS BIIF-5  (PRN 30)",
        "meta_object_id": "2014-008A",
        "meta_epoch": "2025-12-20T16:28:24.690432",
        "meta_mean_motion": 2.00548724,
        "meta_eccentricity": 0.0079574,
        "meta_inclination": 53.6246,
        "meta_ra_of_asc_node": 156.6308,
        "meta_arg_of_pericenter": 226.1122,
        "meta_mean_anomaly": 133.2164,
        "meta_ephemeris_type": 0,
        "meta_classification_type": "U",
        "meta_norad_cat_id": 39533,
        "meta_element_set_no": 999,
        "meta_rev_at_epoch": 8610,
        "meta_bstar": 0,
        "meta_mean_motion_dot": 6.5e-07,
        "meta_mean_motion_ddot": 0,
        "tle_line1": "1 39533U 14008A   25354.68639688  .00000065  00000+0  00000+0 0  9998",
        "tle_line2": "2 39533  53.6246 156.6308 0079574 226.1122 133.2164  2.00548724 86105"
      },
      "geometry": {
        "type": "Point",
        "coordinates": [
          -0.6752542479924583,
          -27.70687734811341
        ]
      }
    },
    {
      "type": "Feature",
      "properties": {
        "norad_id": 39741,
        "name": "GPS BIIF-6  (PRN 06)",
        "group": "gps-ops",
        "lat": 9.570651090547486,
        "lon": -15.225420397556858,
        "alt_km": 20117.345894475802,
        "timestamp": "2025-12-22T11:33:20.698426+00:00",
        "meta_object_name": "GPS BIIF-6  (PRN 06)",
        "meta_object_id": "2014-026A",
        "meta_epoch": "2025-12-21T23:12:34.798752",
        "meta_mean_motion": 2.00560759,
        "meta_eccentricity": 0.003941,
        "meta_inclination": 56.58,
        "meta_ra_of_asc_node": 338.4177,
        "meta_arg_of_pericenter": 319.2097,
        "meta_mean_anomaly": 40.4995,
        "meta_ephemeris_type": 0,
        "meta_classification_type": "U",
        "meta_norad_cat_id": 39741,
        "meta_element_set_no": 999,
        "meta_rev_at_epoch": 8498,
        "meta_bstar": 0,
        "meta_mean_motion_dot": -6.8e-07,
        "meta_mean_motion_ddot": 0,
        "tle_line1": "1 39741U 14026A   25355.96706943 -.00000068  00000+0  00000+0 0  9994",
        "tle_line2": "2 39741  56.5800 338.4177 0039410 319.2097  40.4995  2.00560759 84985"
      },
      "geometry": {
        "type": "Point",
        "coordinates": [
          -15.225420397556858,
          9.570651090547486
        ]
      }
    },
    {
      "type": "Feature",
      "properties": {
        "norad_id": 40105,
        "name": "GPS BIIF-7  (PRN 09)",
        "group": "gps-ops",
        "lat": -39.716598521000684,
        "lon": 60.33624980381481,
        "alt_km": 20271.22537599723,
        "timestamp": "2025-12-22T11:33:20.698437+00:00",
        "meta_object_name": "GPS BIIF-7  (PRN 09)",
        "meta_object_id": "2014-045A",
        "meta_epoch": "2025-12-21T13:19:50.036736",
        "meta_mean_motion": 2.00573131,
        "meta_eccentricity": 0.0032463,
        "meta_inclination": 55.2342,
        "meta_ra_of_asc_node": 95.5472,
        "meta_arg_of_pericenter": 120.1198,
        "meta_mean_anomaly": 240.2018,
        "meta_ephemeris_type": 0,
        "meta_classification_type": "U",
        "meta_norad_cat_id": 40105,
        "meta_element_set_no": 999,
        "meta_rev_at_epoch": 8251,
        "meta_bstar": 0,
        "meta_mean_motion_dot": -7e-08,
        "meta_mean_motion_ddot": 0,
        "tle_line1": "1 40105U 14045A   25355.55544024 -.00000007  00000+0  00000+0 0  9999",
        "tle_line2": "2 40105  55.2342  95.5472 0032463 120.1198 240.2018  2.00573131 82510"
      },
      "geometry": {
        "type": "Point",
        "coordinates": [
          60.33624980381481,
          -39.716598521000684
        ]
      }
    },
    {
      "type": "Feature",
      "properties": {
        "norad_id": 40294,
        "name": "GPS BIIF-8  (PRN 03)",
        "group": "gps-ops",
        "lat": 30.125945358521626,
        "lon": 60.05014486208758,
        "alt_km": 20041.11378681728,
        "timestamp": "2025-12-22T11:33:20.698448+00:00",
        "meta_object_name": "GPS BIIF-8  (PRN 03)",
        "meta_object_id": "2014-068A",
        "meta_epoch": "2025-12-21T10:24:33.832224",
        "meta_mean_motion": 2.00565456,
        "meta_eccentricity": 0.00608151,
        "meta_inclination": 56.8641,
        "meta_ra_of_asc_node": 37.8098,
        "meta_arg_of_pericenter": 69.0115,
        "meta_mean_anomaly": 291.7086,
        "meta_ephemeris_type": 0,
        "meta_classification_type": "U",
        "meta_norad_cat_id": 40294,
        "meta_element_set_no": 999,
        "meta_rev_at_epoch": 8164,
        "meta_bstar": 0,
        "meta_mean_motion_dot": -5.2e-07,
        "meta_mean_motion_ddot": 0,
        "tle_line1": "1 40294U 14068A   25355.43372491 -.00000052  00000+0  00000+0 0  9997",
        "tle_line2": "2 40294  56.8641  37.8098 0060815  69.0115 291.7086  2.00565456 81643"
      },
      "geometry": {
        "type": "Point",
        "coordinates": [
          60.05014486208758,
          30.125945358521626
        ]
      }
    },
    {
      "type": "Feature",
      "properties": {
        "norad_id": 40534,
        "name": "GPS BIIF-9  (PRN 26)",
        "group": "gps-ops",
        "lat": -42.591753281495706,
        "lon": 168.00378864012632,
        "alt_km": 20216.416113486222,
        "timestamp": "2025-12-22T11:33:20.698459+00:00",
        "meta_object_name": "GPS BIIF-9  (PRN 26)",
        "meta_object_id": "2015-013A",
        "meta_epoch": "2025-12-21T01:33:43.050240",
        "meta_mean_motion": 2.00562033,
        "meta_eccentricity": 0.01073869,
        "meta_inclination": 53.1966,
        "meta_ra_of_asc_node": 211.5454,
        "meta_arg_of_pericenter": 38.6862,
        "meta_mean_anomaly": 322.1684,
        "meta_ephemeris_type": 0,
        "meta_classification_type": "U",
        "meta_norad_cat_id": 40534,
        "meta_element_set_no": 999,
        "meta_rev_at_epoch": 7825,
        "meta_bstar": 0,
        "meta_mean_motion_dot": 7.9e-07,
        "meta_mean_motion_ddot": 0,
        "tle_line1": "1 40534U 15013A   25355.06508160  .00000079  00000+0  00000+0 0  9996",
        "tle_line2": "2 40534  53.1966 211.5454 0107386  38.6862 322.1684  2.00562033 78257"
      },
      "geometry": {
        "type": "Point",
        "coordinates": [
          168.00378864012632,
          -42.591753281495706
        ]
      }
    }
  ]
}